1998-067TE              
1 51442U 98067TE  22046.87555528  .00020839  00000+0  35317-3 0  9998
2 51442  51.6393 217.1816 0007785 156.6125 203.5220 15.51457403  3208
DAILI                   
1 51443U 98067TF  22046.86729130  .00047187  00000+0  75167-3 0  9992
2 51443  51.6395 217.1270 0008239 140.6138 219.5453 15.52744969  3164
CSG-2                   
1 51444U 22008A   22046.24955742  .00079100  00000+0  95332-2 0  9992
2 51444  97.8788 231.7031 0002047 152.5357 207.4957 14.83424703  2119
STARLINK-3167           
1 51460U 22010E   22046.91668981 -.00893984  00000+0 -42112-2 0  9997
2 51460  53.2176 112.2301 0000622 270.1614 231.1513 15.84566752  2448
STARLINK-3181           
1 51461U 22010F   22046.91668981 -.00878483  00000+0 -44361-2 0  9993
2 51461  53.2176 112.3358 0000952  88.9731 356.3925 15.83076770  2445
STARLINK-3166           
1 51462U 22010G   22046.91668981 -.00878519  00000+0 -44376-2 0  9990
2 51462  53.2176 112.3339 0000949  97.6991 348.4124 15.83070642  2441
STARLINK-3419           
1 51463U 22010H   22046.91668981 -.00880996  00000+0 -41491-2 0  9998
2 51463  53.2176 112.2248 0001174  57.7586  85.9681 15.84534968  2446
STARLINK-3189           
1 51464U 22010J   22046.91668981 -.00878438  00000+0 -44335-2 0  9997
2 51464  53.2176 112.3318 0000956  86.6771   0.3695 15.83087860  2449
STARLINK-3401           
1 51465U 22010K   22046.91668981 -.00878494  00000+0 -44346-2 0  9992
2 51465  53.2176 112.3302 0001064  60.8179  26.9477 15.83083179  2441
STARLINK-3178           
1 51467U 22010M   22046.91668981 -.00881215  00000+0 -41509-2 0  9997
2 51467  53.2176 112.2234 0001102  67.3933  77.0235 15.84532329  2445
STARLINK-3174           
1 51468U 22010N   22046.91668981 -.00880959  00000+0 -41452-2 0  9999
2 51468  53.2176 112.2283 0001115  62.3449  79.7082 15.84554006  2446
STARLINK-3182           
1 51469U 22010P   22046.91668981 -.00878576  00000+0 -44357-2 0  9999
2 51469  53.2176 112.3329 0000944  96.8909 349.6530 15.83081208  2446
STARLINK-3165           
1 51471U 22010R   22044.41667824 -.00869411  25306-3 -18239-2 0  9998
2 51471  53.2172 124.3996 0007945 267.1673 195.3674 15.98177164  2041
STARLINK-3415           
1 51472U 22010S   22046.91668981 -.00880994  00000+0 -41465-2 0  9997
2 51472  53.2176 112.2267 0001151  56.1741  86.6384 15.84548091  2448
FALCON 9 DEB            
1 51473U 22010T   22046.38178227  .08180364  12257-4  27376-3 0  9996
2 51473  53.2032 113.3193 0015618 223.6498 136.3318 16.43059090  2670
FALCON 9 DEB            
1 51474U 22010U   22046.63668010  .06085759  12087-4  45821-3 0  9995
2 51474  53.1941 112.0564 0021066 208.6519 151.3374 16.38696876  2715
FALCON 9 DEB            
1 51475U 22010V   22045.57141195  .12875733  12445-4  17695-3 0  9990
2 51475  53.2022 117.5138 0010922 223.4557 136.5635 16.48290060  2542
FALCON 9 DEB            
1 51476U 22010W   22046.25149440  .11768701  12386-4  16053-3 0  9994
2 51476  53.2017 113.9238 0014385 220.7781 139.2196 16.47959322  2650
LIGHT-1                 
1 51509U 98067TG  22046.94760640  .00024686  00000+0  42296-3 0  9991
2 51509  51.6451 216.9057 0009731 140.1035 220.0670 15.51022322  1997
GT-1                    
1 51510U 98067TH  22046.88121708  .00067366  00000+0  11071-2 0  9990
2 51510  51.6416 217.2145 0008518 140.8701 219.2901 15.51719993  2008
COSMOS 2553             
1 51511U 22011A   22046.94780276 -.00000114  00000+0 -21732-2 0  9990
2 51511  67.0893 212.8228 0003954 266.9293  93.1198 11.32883307  1212
ONEWEB-0410             
1 51622U 22012A   22046.91668981 -.00026282  00000+0 -88342-3 0  9994
2 51622  87.3997 359.8924 0015615 230.1555  96.3157 15.30905329  1469
ONEWEB-0411             
1 51623U 22012B   22046.91668981 -.00023502  00000+0 -86122-3 0  9991
2 51623  87.4021 359.8989 0013636 234.8329  40.6920 15.28115772  1485
ONEWEB-0415             
1 51624U 22012C   22046.91668981 -.00024033  00000+0 -87209-3 0  9999
2 51624  87.4017 359.9003 0015098 235.0209  45.5805 15.28417368  1496
ONEWEB-0416             
1 51625U 22012D   22046.91668981 -.00022262  00000+0 -76765-3 0  9997
2 51625  87.4020 359.8956 0012645 235.5390  76.4322 15.30114032  1489
ONEWEB-0422             
1 51626U 22012E   22046.91668981 -.00022215  00000+0 -75217-3 0  9997
2 51626  87.4012 359.8943 0015207 233.6404  88.4469 15.30670201  1513
ONEWEB-0423             
1 51627U 22012F   22046.91668981 -.00026310  00000+0 -88105-3 0  9998
2 51627  87.4027 359.8944 0015861 228.3755 100.3081 15.31023387  1485
ONEWEB-0425             
1 51628U 22012G   22046.91668981 -.00022902  00000+0 -81318-3 0  9991
2 51628  87.4013 359.9004 0015337 224.4776  69.3046 15.29122961  1498
ONEWEB-0428             
1 51629U 22012H   22046.91668981 -.00023611  00000+0 -87061-3 0  9991
2 51629  87.4023 359.9013 0012881 235.1548  37.1979 15.27921182  1484
ONEWEB-0431             
1 51630U 22012J   22046.91668981 -.00022962  00000+0 -81883-3 0  9997
2 51630  87.4035 359.8982 0015704 226.1590  65.2962 15.28976902  1482
ONEWEB-0434             
1 51631U 22012K   22046.91668981 -.00026587  00000+0 -94024-3 0  9996
2 51631  87.4028 359.8992 0014632 221.2346  75.5963 15.29273373  1488
ONEWEB-0435             
1 51632U 22012L   22046.91668981 -.00023203  00000+0 -84007-3 0  9999
2 51632  87.4047 359.9027 0015439 234.2490  48.2525 15.28484913  1484
ONEWEB-0436             
1 51633U 22012M   22046.91668981 -.00026738  00000+0 -88040-3 0  9997
2 51633  87.4023 359.8915 0014519 219.5636 119.4960 15.31588359  1498
ONEWEB-0438             
1 51634U 22012N   22046.91668981 -.00022376  00000+0 -77450-3 0  9995
2 51634  87.4045 359.8969 0012602 230.3776  79.3826 15.29992049  1496
ONEWEB-0439             
1 51635U 22012P   22046.91668981 -.00022787  00000+0 -80262-3 0  9997
2 51635  87.4007 359.8954 0014097 221.8300  77.2791 15.29403701  1486
ONEWEB-0442             
1 51636U 22012Q   22046.91668981 -.00026988  00000+0 -87868-3 0  9994
2 51636  87.4006 359.8890 0012575 217.3256 128.8325 15.31977768  1493
ONEWEB-0443             
1 51637U 22012R   22046.91668981 -.00026568  00000+0 -87757-3 0  9996
2 51637  87.4011 359.8938 0014884 221.1355 115.8381 15.31481364  1514
ONEWEB-0444             
1 51638U 22012S   22046.91668981 -.00026152  00000+0 -89876-3 0  9990
2 51638  87.4026 359.8987 0013166 235.6468  78.4289 15.30224113  1496
ONEWEB-0445             
1 51639U 22012T   22046.91668981 -.00023524  00000+0 -82284-3 0  9997
2 51639  87.4018 359.8965 0013108 223.0789  80.4478 15.29644821  1467
ONEWEB-0446             
1 51640U 22012U   22046.91668981  .00101882  00000+0  34587-2 0  9993
2 51640  87.4018 359.8961 0012328 231.9953  79.8930 15.30024291  1526
ONEWEB-0448             
1 51641U 22012V   22046.91668981 -.00023032  00000+0 -82737-3 0  9997
2 51641  87.4033 359.9008 0015968 230.8257  56.1582 15.28733300  1497
ONEWEB-0449             
1 51642U 22012W   22046.91668981 -.00023039  00000+0 -82447-3 0  9993
2 51642  87.4020 359.9002 0016015 227.6328  61.6651 15.28857389  1510
ONEWEB-0451             
1 51643U 22012X   22046.91668981 -.00022380  00000+0 -74452-3 0  9999
2 51643  87.4018 359.8934 0015533 224.1342 108.2650 15.31233300  1481
ONEWEB-0452             
1 51644U 22012Y   22046.91668981 -.00026980  00000+0 -87511-3 0  9990
2 51644  87.4040 359.8937 0012050 218.2825 130.2394 15.32105434  1477
ONEWEB-0455             
1 51645U 22012Z   22046.91668981 -.00023342  00000+0 -85061-3 0  9998
2 51645  87.4024 359.9019 0014459 236.2528  42.6906 15.28286500  1493
ONEWEB-0456             
1 51646U 22012AA  22046.91668981 -.00022208  00000+0 -75979-3 0  9996
2 51646  87.4017 359.8933 0013723 235.7640  80.6758 15.30354936  1479
ONEWEB-0457             
1 51647U 22012AB  22046.91668981  .00084679  00000+0  29028-2 0  9998
2 51647  87.4005 359.8966 0012489 227.1554  80.1659 15.29776530  1460
ONEWEB-0458             
1 51648U 22012AC  22046.91668981  .00105643  00000+0  36837-2 0  9990
2 51648  87.4028 359.8983 0014691 221.7482  74.0093 15.29105966  1465
ONEWEB-0461             
1 51649U 22012AD  22046.91668981 -.00022193  00000+0 -75622-3 0  9997
2 51649  87.4023 359.8965 0014216 235.8106  82.7623 15.30478171  1494
ONEWEB-0463             
1 51650U 22012AE  22046.91668981 -.00026517  00000+0 -87922-3 0  9999
2 51650  87.4029 359.8911 0015177 222.7239 111.9816 15.31353782  1481
ONEWEB-0464             
1 51651U 22012AF  22046.91668981 -.00026377  00000+0 -92026-3 0  9995
2 51651  87.4021 359.8962 0012485 225.5361  79.7678 15.29742741  1465
ONEWEB-0468             
1 51652U 22012AG  22046.91668981 -.00023130  00000+0 -83388-3 0  9991
2 51652  87.4003 359.8985 0015725 232.4391  52.4365 15.28619101  1497
ONEWEB-0473             
1 51653U 22012AH  22046.91668981 -.00022652  00000+0 -79526-3 0  9999
2 51653  87.4039 359.9005 0013617 222.4723  78.7255 15.29517396  1489
ONEWEB-0474             
1 51654U 22012AJ  22046.91668981 -.00023450  00000+0 -86113-3 0  9997
2 51654  87.4026 359.9041 0013289 237.4198  37.5174 15.28050902  1525
ONEWEB-0475             
1 51655U 22012AK  22046.91668981 -.00024033  00000+0 -81047-3 0  9997
2 51655  87.4042 359.8963 0015423 231.8178  92.5945 15.30798298  1486
EOS-4                   
1 51656U 22013A   22046.97810664  .00047807  00000+0  27152-2 0  9990
2 51656  97.5514  56.0656 0010863 240.1217 119.8935 15.12698452   299
INSPIRESAT-1            
1 51657U 22013B   22046.97768094  .00033867  00000+0  19114-2 0  9990
2 51657  97.5581  56.0732 0010142 245.1831 114.8346 15.13021443   298
INS-2TD                 
1 51658U 22013C   22046.97748371  .00003082  00000+0  17740-3 0  9997
2 51658  97.5577  56.0737 0009429 250.1639 109.8594 15.13159967   299
PSLV R/B                
1 51659U 22013D   22046.97436318  .00005563  00000+0  29317-3 0  9992
2 51659  97.5720  56.1178 0032657 332.7856  27.1668 15.15544253   299
